INSPIRESAT-1
1 51657U 22013B   25351.83787004  .00054405  00000-0  62290-3 0  9995
2 51657  97.4636  29.0550 0003945  29.2841 330.8637 15.61960083214049
GOES-18
1 51850U 22021A   25351.74215016  .00000122  00000-0  00000-0 0  9993
2 51850   0.0199 176.1469 0000461 158.7139 241.9291  1.00272269  4774
MERIDIAN-10
1 52145U 22030A   25351.52750980  .00000333  00000-0  00000-0 0  9995
2 52145  62.6681 160.0566 6743795 273.0810  17.8936  2.00596963 27388
BRO-6
1 52422U 22047AE  25351.91144491  .00013306  00000-0  31703-3 0  9999
2 52422  97.3542  75.7955 0004846  21.5820 338.5631 15.41701963203152
CONNECTA-T1
1 52739U 22057H   25351.38127904  .00283550  32629-4  83044-3 0  9993
2 52739  97.6164 146.5816 0004597 309.3811  50.7055 15.92739436198977
STEP CUBELAB-II
1 52897U 22065D   25351.90859234  .00000891  00000-0  18351-3 0  9991
2 52897  98.1940 131.7134 0007676 228.6635 131.3906 14.62889235184994
RANDEV
1 52898U 22065E   25351.88784961  .00000965  00000-0  19643-3 0  9990
2 52898  98.1926 131.9657 0006984 229.1099 130.9498 14.63245631184732
SNUGLITE-II
1 52899U 22065F   25351.86040503  .00001076  00000-0  21512-3 0  9998
2 52899  98.1932 132.3644 0006674 226.9775 133.0869 14.63850453184463
MIMAN
1 52900U 22065G   25351.37274724  .00000614  00000-0  13317-3 0  9992
2 52900  98.1982 130.1080 0006692 228.6201 131.4425 14.61549991183889
GREENCUBE (IO-117)
1 53106U 22080B   25051.21822557 -.00000003  00000-0  00000 0 0  9995
2 53106  70.1434 106.3440 0008542  48.0089 312.1297  6.42557744 61200
ROBUSTA 1F (MTCUBE-2)
1 53109U 22080E   25351.40093974 -.00000003  00000-0  00000-0 0  9996
2 53109  70.1587   1.4598 0009168 326.8109  33.1975  6.42583171 80382
BLUEWALKER-3
1 53807U 22111AL  25351.77777896  .00003960  00000-0  12247-3 0  9991
2 53807  53.2287 164.1902 0005647 354.2709   5.8229 15.35903424182303
ELEKTRO-L4
1 55506U 23016A   25351.29994117 -.00000033  00000-0  00000-0 0  9998
2 55506   0.0896 112.9135 0002978 143.5182 103.5470  1.00270669 10516
SHARJAHSAT-1
1 55104U 23001CZ  25351.95379284  .00015242  00000-0  36413-3 0  9998
2 55104  97.3467  53.9148 0007705  49.4206 310.7711 15.41571198164505
METEOR M2-3
1 57166U 23091A   25351.96124483  .00000005  00000-0  21087-4 0  9990
2 57166  98.6373  45.4093 0003608 353.4262   6.6869 14.24026644128728
STRATOSAT-TK1 (RS52S)
1 57167U 23091B   25351.86320540  .00293929  00000-0  15479-2 0  9997
2 57167  97.5188  64.7638 0005170 306.5138  53.5653 15.79876198137682
RESHUCUBE-2 (RS37S)
1 57168U 23091C   25351.83797576  .00009092  00000-0  39355-3 0  9998
2 57168  97.5316  48.5573 0012992  29.5825 330.6144 15.22577274136627
RASSVET 1-1
1 57169U 23091D   25351.86757751  .00006718  00000-0  30716-3 0  9997
2 57169  97.5389  48.2015 0011341  23.6828 336.4927 15.20828696136573
RASSVET 1-2
1 57170U 23091E   25351.86771236  .00006754  00000-0  30889-3 0  9994
2 57170  97.5394  48.2663 0009988  16.4342 343.7215 15.20829181136576
RASSVET 1-3
1 57171U 23091F   25351.86742845  .00006845  00000-0  31278-3 0  9993
2 57171  97.5391  48.2258 0012397  33.0217 327.1790 15.20828957136572
UMKA-1 (RS40S)
1 57172U 23091G   25351.88311510  .00005580  00000-0  27522-3 0  9999
2 57172  97.5341  46.3258 0014351  36.8313 323.3904 15.18238350136470
SATURN (RS43S)
1 57174U 23091J   25351.87046800  .00003283  00000-0  19268-3 0  9993
2 57174  97.5348  42.4628 0015045  57.3252 302.9428 15.12350215136213
CUBEBEL-2 (EU11S)
1 57175U 23091K   25351.84214683  .00011286  00000-0  46560-3 0  9994
2 57175  97.5340  48.8181 0011711  39.8654 320.3441 15.24160674136633
SITRO-AIS-5 (ANOKHIN)
1 57176U 23091L   25351.96708133  .00009886  00000-0  40274-3 0  9995
2 57176  97.5345  49.5091 0013195  27.3456 332.8473 15.24603275136684
ZORKIY-2M
1 57177U 23091M   25351.99309104  .00006163  00000-0  30562-3 0  9998
2 57177  97.5380  46.6255 0014915  33.1352 327.0813 15.17999753136488
CUBESX-HSE-3 (RS42S)
1 57178U 23091N   25351.99202214  .00011053  00000-0  43275-3 0  9992
2 57178  97.5374  50.7220 0012374  19.0506 341.1192 15.25913600136743
PHI-DEMO
1 57181U 23091R   25351.98236954  .00002988  00000-0  17234-3 0  9996
2 57181  97.5354  43.2370 0016734  47.4924 312.7717 15.13025529136277
MONITOR-3 (RS58S)
1 57180U 23091Q   25351.93513884  .00008906  00000-0  37504-3 0  9998
2 57180  97.5367  49.3452 0013336  23.4640 336.7202 15.23517172136650
NORBY-2
1 57179U 23091P   25351.93011257  .00003570  00000-0  19589-3 0  9998
2 57179  97.5384  44.6501 0016368  37.7976 322.4402 15.14695053136332
MONITOR-4 (RS57S)
1 57182U 23091S   25351.92435497  .00009303  00000-0  39074-3 0  9998
2 57182  97.5362  49.2957 0013343  23.9959 336.1897 15.23587761136657
MONITOR-2 (RS39S)
1 57184U 23091U   25351.96595743  .00004831  00000-0  24897-3 0  9993
2 57184  97.5366  46.4061 0012406  29.3740 330.8188 15.16787923136462
SVYATOBOR-1 (RS60S)
1 57187U 23091X   25351.94656291  .00006933  00000-0  29850-3 0  9999
2 57187  97.5373  49.9751 0010527  17.1908 342.9683 15.22878448136699
VIZARD-METEO (RS38S)
1 57189U 23091Z   25351.94002184  .00012997  00000-0  45623-3 0  9990
2 57189  97.5365  53.4117 0008307   5.2988 354.8339 15.29517525136926
NANOZOND-1 (RS49S)
1 57190U 23091AA  25351.96393095  .00055037  00000-0  85095-3 0  9997
2 57190  97.5286  62.0909 0004281 338.4176  21.6896 15.53906283137515
SITRO-AIS-6 (CHIRKIN)
1 57192U 23091AC  25351.95397396  .00005380  00000-0  23110-3 0  9992
2 57192  97.5346  49.3515 0013314  29.8023 330.3969 15.23038230136676
SITRO-AIS-8 (SHCHUKIN)
1 57193U 23091AD  25351.93019672  .00012029  00000-0  46202-3 0  9994
2 57193  97.5339  50.4319 0012370  25.5480 334.6368 15.26527819136742
SITRO-AIS-7 (SHEFFER)
1 57194U 23091AE  25351.99242088  .00005685  00000-0  24551-3 0  9993
2 57194  97.5346  49.2892 0013213  30.5059 329.6944 15.22831718136676
AVION KALUGA 650
1 57195U 23091AF  25351.97129929  .00005476  00000-0  27273-3 0  9992
2 57195  97.5379  47.3091 0011572  28.8407 331.3464 15.17941579136517
SITRO-AIS-10 (KATYS)
1 57199U 23091AK  25351.95818465  .00013718  00000-0  45892-3 0  9999
2 57199  97.5355  53.9375 0008018   8.5300 351.6075 15.31069038136960
SITRO-AIS-9 (BURDAEV)
1 57201U 23091AM  25351.93850781  .00014598  00000-0  49261-3 0  9999
2 57201  97.5355  53.7599 0008035   8.7319 351.4060 15.30774076136956
UTMN-2 (RS27S)
1 57203U 23091AP  25351.98350377  .00010503  00000-0  40034-3 0  9993
2 57203  97.5366  52.1198 0009112   9.1043 351.0359 15.26851783136845
SITRO-AIS-12 (FARTUSHNY)
1 57204U 23091AQ  25351.95937385  .00013770  00000-0  46169-3 0  9995
2 57204  97.5364  54.1495 0007772   2.4153 357.7124 15.30996982136977
AHMAT-1 (RS41S)
1 57206U 23091AS  25351.95273300  .00028857  00000-0  66486-3 0  9993
2 57206  97.5317  58.4990 0005605 352.2343   7.8816 15.42548227137288
SITRO-AIS-11 (SMIRENNY)
1 57208U 23091AU  25351.94895031  .00014557  00000-0  48373-3 0  9992
2 57208  97.5362  54.2921 0007656   1.9942 358.1328 15.31273859136989
KUZGTU-1 (RS47S)
1 57217U 23091AV  25351.97865064  .00010089  00000-0  40626-3 0  9997
2 57217  97.5347  49.9829 0012610  21.7875 338.3896 15.24994623136713
STRATOSAT-TK1-E (RS52SE)
1 57323U 23091AX  25351.98739014  .00051045  00000-0  90129-3 0  9991
2 57323  97.5304  59.4776 0006740 348.7816  11.3284 15.50188074135223
STRATOSAT-TK1-D (RS52SD)
1 57326U 23091BA  25351.98345330  .00045482  00000-0  86447-3 0  9994
2 57326  97.5294  58.8054 0006908 353.9477   6.1688 15.48104008135023
METEOR M2-4
1 59051U 24039A   25351.98091122  .00000013  00000-0  25569-4 0  9991
2 59051  98.6773 308.8077 0006760 343.1906  16.9047 14.22402115 93506
ZORKIY-2M 2
1 59064U 24039P   25351.98030087  .00330289  47625-4  66808-3 0  9997
2 59064  97.4246 336.2988 0006434  89.3845 270.8170 15.99562736101630
PARS-1
1 59065U 24039Q   25351.99297039  .00009918  00000-0  24127-3 0  9993
2 59065  97.4633 323.0375 0012230  56.4341 303.8072 15.41091838100692
SITRO-AIS-25
1 59066U 24039R   25351.97204367  .00005075  00000-0  41331-3 0  9990
2 59066  95.3961 110.6726 0148150 240.6418 117.9942 14.91487615 97698
SITRO-AIS-26
1 59067U 24039S   25351.95065093  .00006299  00000-0  51433-3 0  9993
2 59067  95.3960 110.5891 0148364 241.0999 117.5274 14.91314964 97685
SITRO-AIS-27
1 59068U 24039T   25351.96899388  .00005338  00000-0  43296-3 0  9998
2 59068  95.3962 110.7954 0147563 240.0322 118.6186 14.91686677 97709
SITRO-AIS-28
1 59071U 24039U   25351.95077066  .00006108  00000-0  49459-3 0  9995
2 59071  95.3960 110.8203 0147404 239.9489 118.7048 14.91729108 97709
SONATE-2
1 59112U 24043Q   25351.89838435  .00022799  00000-0  47837-3 0  9996
2 59112  97.5329 128.3425 0009179 143.9203 216.2667 15.45346989 99774
HORS-1
1 57188U 23091Y   25351.94088722  .00007910  00000-0  33970-3 0  9992
2 57188  97.5354  49.7615 0010018  17.5502 342.6079 15.22922287136692
HORS-2
1 57196U 23091AG  25351.93180529  .00010767  00000-0  41312-3 0  9991
2 57196  97.5367  51.9291 0009230  13.1868 346.9610 15.26625334136821
ZORKIY-2M 6
1 59774U 24092B   25351.94768709  .00009649  00000-0  39632-3 0  9999
2 59774  97.6301 111.9490 0010639  97.2279 263.0168 15.24365668 87883
ZORKIY-2M 4
1 59775U 24092C   25351.93988001  .00009626  00000-0  38869-3 0  9994
2 59775  97.6434 113.2645 0010619  99.5963 260.6474 15.24941976 87910
SITRO-AIS-53
1 59776U 24092D   25351.86388798  .00013869  00000-0  49021-3 0  9990
2 59776  97.6379 113.7617 0009151  74.0491 286.1756 15.29270028 87965
SITRO-AIS-54
1 59777U 24092E   25351.86893937  .00013887  00000-0  49195-3 0  9999
2 59777  97.6379 113.7468 0009384  74.1267 286.1006 15.29193890 87969
SITRO-AIS-56
1 59778U 24092F   25351.32990440  .00015138  00000-0  52808-3 0  9994
2 59778  97.6372 113.3504 0009450  76.0944 284.1347 15.29676530 87892
RASSVET 1-4
1 59779U 24092G   25351.95121336  .00000169  00000-0  79919-4 0  9995
2 59779  98.6527 106.4126 0012240  26.4369 333.7436 14.31744743 82967
